{"type":"FeatureCollection","features":[{"type":"Feature","geometry":{"type":"Polygon","coordinates":[[[127.015957,37.538067,0],[127.016734,37.539399,0],[127.017764,37.540624,0],[127.020978,37.542083,0],[127.02314,37.543722,0],[127.025302,37.54492,0],[127.029183,37.5461,0],[127.033394,37.548432,0],[127.035489,37.551243,0],[127.038058,37.552584,0],[127.041658,37.553718,0],[127.043559,37.553691,0],[127.044787,37.553875,0],[127.048653,37.554842,0],[127.050657,37.556174,0],[127.050975,37.558089,0],[127.048183,37.563911,0],[127.044944,37.569385,0],[127.041085,37.571455,0],[127.036337,37.572059,0],[127.035857,37.572069,0],[127.035261,37.571815,0],[127.034616,37.571541,0],[127.034106,37.571208,0],[127.033317,37.570657,0],[127.032462,37.570176,0],[127.031948,37.569866,0],[127.031154,37.569786,0],[127.030268,37.569766,0],[127.028991,37.57009,0],[127.027165,37.570607,0],[127.02565,37.57105,0],[127.024152,37.571487,0],[127.0234,37.571667,0],[127.023435,37.570697,0],[127.023447,37.569961,0],[127.023457,37.569489,0],[127.02347,37.569151,0],[127.023476,37.568854,0],[127.023489,37.568479,0],[127.023499,37.568148,0],[127.023515,37.567888,0],[127.023525,37.56746,0],[127.023541,37.566931,0],[127.023546,37.56663,0],[127.023556,37.566348,0],[127.023568,37.566031,0],[127.023576,37.565597,0],[127.023586,37.565255,0],[127.023621,37.565188,0],[127.024291,37.565142,0],[127.025187,37.565101,0],[127.026121,37.565062,0],[127.026736,37.565033,0],[127.026668,37.564852,0],[127.026733,37.564838,0],[127.026657,37.564533,0],[127.026752,37.564482,0],[127.026754,37.564348,0],[127.026777,37.564255,0],[127.026684,37.564195,0],[127.02669,37.56406,0],[127.026748,37.563929,0],[127.026494,37.563323,0],[127.026384,37.563276,0],[127.026194,37.562891,0],[127.025998,37.562699,0],[127.025496,37.562333,0],[127.024885,37.562074,0],[127.024571,37.561955,0],[127.024337,37.561996,0],[127.024296,37.561828,0],[127.024243,37.561645,0],[127.024166,37.561557,0],[127.024083,37.561392,0],[127.023955,37.561074,0],[127.023849,37.560787,0],[127.023846,37.560477,0],[127.023848,37.560261,0],[127.023846,37.559981,0],[127.023852,37.559811,0],[127.023829,37.559476,0],[127.02377,37.559004,0],[127.02377,37.558876,0],[127.023793,37.558757,0],[127.023835,37.558468,0],[127.024035,37.558273,0],[127.02431,37.55783,0],[127.02432,37.557794,0],[127.022953,37.557884,0],[127.022641,37.557688,0],[127.022562,37.557657,0],[127.021951,37.557448,0],[127.021553,37.557608,0],[127.020918,37.557869,0],[127.019874,37.557583,0],[127.01936,37.55741,0],[127.019087,37.557189,0],[127.018867,37.557164,0],[127.018492,37.556908,0],[127.017939,37.55667,0],[127.017776,37.556504,0],[127.017756,37.556312,0],[127.01747,37.55608,0],[127.017305,37.555551,0],[127.017284,37.555088,0],[127.01707,37.554661,0],[127.017071,37.554563,0],[127.017092,37.553809,0],[127.016727,37.553342,0],[127.016476,37.553027,0],[127.016146,37.552665,0],[127.015568,37.552051,0],[127.015182,37.551652,0],[127.01466,37.551142,0],[127.014154,37.55062,0],[127.013436,37.550238,0],[127.012675,37.549834,0],[127.012547,37.549694,0],[127.012214,37.549274,0],[127.012042,37.549087,0],[127.011513,37.548583,0],[127.011039,37.548111,0],[127.010577,37.548042,0],[127.00976,37.547909,0],[127.009505,37.547497,0],[127.009355,37.546924,0],[127.009322,37.546165,0],[127.008748,37.545825,0],[127.008324,37.545084,0],[127.008079,37.544508,0],[127.007775,37.543728,0],[127.008717,37.543503,0],[127.008916,37.542055,0],[127.009159,37.54057,0],[127.009315,37.540394,0],[127.01043,37.539459,0],[127.011383,37.539252,0],[127.011709,37.539262,0],[127.012049,37.539404,0],[127.012526,37.539589,0],[127.013567,37.538984,0],[127.013941,37.539052,0],[127.01471,37.539031,0],[127.01505,37.538735,0],[127.015156,37.538436,0],[127.015256,37.538387,0],[127.015957,37.538067,0]]]},"properties":{"description":{"@type":"html","value":"설명: <br>name: 성동"},"styleUrl":"#poly-000000-1200-77","fill-opacity":0.30196078431372547,"fill":"#000000","stroke-opacity":1,"stroke":"#000000","stroke-width":1.2,"설명":"","name":"성동"}}]}